id,spkid,full_name,pdes,name,prefix,neo,pha,H,G,M1,M2,K1,K2,PC,diameter,extent,albedo,rot_per,GM,BV,UB,IR,spec_B,spec_T,H_sigma,diameter_sigma,orbit_id,epoch,epoch_mjd,epoch_cal,equinox,e,a,q,i,om,w,ma,ad,n,tp,tp_cal,per,per_y,moid,moid_ld,moid_jup,t_jup,sigma_e,sigma_a,sigma_q,sigma_i,sigma_om,sigma_w,sigma_ma,sigma_ad,sigma_n,sigma_tp,sigma_per,class,producer,data_arc,first_obs,last_obs,n_obs_used,n_del_obs_used,n_dop_obs_used,condition_code,rms,two_body,A1,A2,A3,DT
bK20H03B,54016644,       (2020 HB3),2020 HB3,,,Y,N,25.108,,,,,,,,,,,,,,,,,.39361,,JPL 3,2458960.5,58960,20200421.0000000,J2000,.4081678493145113,1.515903744675813,.8971605734436726,11.27060247708424,43.7779248002384,230.5099551805001,333.2700408805698,2.134646915907954,.5280762493997818,2459011.117612797038,20200610.6176128,681.7197334839061,1.8664469089224,.00319448,1.2431957816,3.02695,4.399,.0018019,.004152,.00027423,.034566,.0072354,.018196,.13609,.0058467,.0021696,.049759,2.8008,APO,Otto Matic,6,2020-04-19,2020-04-25,43,,,8,.58334,,,,,
bK20H03E,54016665,       (2020 HE3),2020 HE3,,,Y,N,22.98,,,,,,,,,,,,,,,,,.53312,,JPL 5,2458960.5,58960,20200421.0000000,J2000,.06184336735834212,1.232902466324779,1.15665562618285,27.20646603637533,34.09517887113317,145.8273336029867,22.55546275548226,1.309149306466709,.7199643492960789,2458929.171417164565,20200320.6714172,500.0247586592002,1.36899317908063,.162372,63.19031124,3.66009,5.085,.00065821,.0013415,.00044705,.062356,.014816,.27558,.27441,.0014245,.0011751,.33015,.8161,AMO,Otto Matic,10,2020-04-18,2020-04-28,38,,,8,.38573,,,,,
bK20H03F,54016666,       (2020 HF3),2020 HF3,,,Y,N,24.458,,,,,,,,,,,,,,,,,.35127,,JPL 13,2459000.5,59000,20200531.0000000,J2000,.5545413084428374,2.431621999722576,1.08318715435803,2.509261257271584,199.6914450530107,37.67953086499783,3.212234889367816,3.780056845087122,.2599321374072751,2458988.142024870766,20200518.6420249,1384.9768773914,3.7918600339258,.0768175,29.895066475,1.23877,3.277,5.7735E-5,.00032958,6.4261E-6,.00019627,.00024147,.0003784,.00069505,.00051235,5.2847E-5,.00016394,.28158,AMO,Otto Matic,39,2020-04-19,2020-05-28,78,,,6,.55495,,,,,
bK20H03G,54016660,       (2020 HG3),2020 HG3,,,Y,N,26.081,,,,,,,,,,,,,,,,,.34759,,JPL 2,2458959.5,58959,20200420.0000000,J2000,.5226030536288062,2.011062021201542,.960074867884697,8.356179249004429,31.0637392766903,224.4767951060408,346.8349281622602,3.062049174518386,.3455937479888208,2458997.594068293636,20200528.0940683,1041.685511080615,2.85197949645617,.029138,11.33963546,2.05275,3.636,.0021202,.0086729,.00012358,.024484,.00061324,.0057509,.092108,.013205,.0022356,.020103,6.7385,APO,Otto Matic,5,2020-04-19,2020-04-24,25,,,8,.51567,,,,,
bK20H03H,54016661,       (2020 HH3),2020 HH3,,,Y,N,23.881,,,,,,,,,,,,,,,,,.316,,JPL 8,2459000.5,59000,20200531.0000000,J2000,.5197020723027338,2.412508833534467,1.158722993297953,12.41664573304009,60.44568426351635,165.228116818682,6.9368850451281,3.666294673770981,.2630272265181075,2458974.126741470999,20200504.6267415,1368.679603117879,3.74724052872794,.154161,59.99483637,1.33469,3.293,7.5578E-5,.00041576,1.7357E-5,.0012086,.00013539,.00050093,.0019283,.00063183,6.7993E-5,.00054619,.35381,AMO,Otto Matic,31,2020-04-19,2020-05-20,41,,,6,.41566,,,,,
bK20H03J,54016664,       (2020 HJ3),2020 HJ3,,,Y,N,22.627,,,,,,,,,,,,,,,,,.47161,,JPL 6,2459000.5,59000,20200531.0000000,J2000,.4615104305937028,1.938301594191802,1.043755190835883,14.00271705086095,199.5678024502461,340.4363132780544,27.99825232239427,2.832847997547721,.3652347104738484,2458923.841753892805,20200315.3417539,985.6675438458274,2.69861066076886,.0578893,22.528778881,2.15521,3.735,.00012216,.00045603,9.3101E-6,.0024698,.0014575,.00026509,.010084,.00066649,.00012889,.00092873,.34785,AMO,Otto Matic,37,2020-04-19,2020-05-26,34,,,6,.37461,,,,,
bK20H03K,54016662,       (2020 HK3),2020 HK3,,,Y,N,24.239,,,,,,,,,,,,,,,,,.33439,,JPL 10,2459000.5,59000,20200531.0000000,J2000,.6584285535337718,1.568593095417181,.5357866125185847,21.82453840733722,41.11749979716916,279.3741015443932,349.6540252609453,2.601399578315777,.5016936745281182,2459021.122095243250,20200620.6220952,717.5693421660297,1.96459778827113,.00560005,2.1793714585,3.06083,4.084,9.1482E-7,3.7287E-6,5.6568E-7,3.6846E-5,5.3162E-6,7.3268E-5,5.9284E-5,6.1838E-6,1.7889E-6,4.542E-5,.0025586,APO,Otto Matic,11,2020-04-19,2020-04-30,93,1,1,3,.38361,,,,,
bK20H03L,54016663,       (2020 HL3),2020 HL3,,,Y,N,24.148,,,,,,,,,,,,,,,,,.48947,,JPL 8,2458969.5,58969,20200430.0000000,J2000,.557388135063634,2.351513228172876,1.040807655344131,2.304103324095404,256.0951096265788,289.591209556949,7.816813666205059,3.662218801001622,.2733272517595254,2458940.901264909061,20200401.4012649,1317.102475814339,3.60603005014193,.0569126,22.148676542,1.31963,3.328,.0012693,.0069573,9.4677E-5,.0042902,.0090826,.0082982,.037208,.010835,.001213,.0092106,5.8453,AMO,Otto Matic,24,2020-04-20,2020-05-14,54,,,8,.59691,,,,,
bK20H03M,54016667,       (2020 HM3),2020 HM3,,,Y,N,24.824,,,,,,,,,,,,,,,,,.31637,,JPL 4,2458960.5,58960,20200421.0000000,J2000,.1971876481865023,1.0426740837255,.8370716333306523,28.98404084401103,208.5164748524583,111.51707821,274.3657443442573,1.248276534120347,.9257233223914477,2459053.005237347290,20200722.5052373,388.8850926538198,1.0647093570262,.0582607,22.673316619,4.00362,5.758,.00050037,.0011764,.00042277,.10187,.0046009,.2542,.33045,.0014083,.0015666,.20042,.65812,APO,Otto Matic,7,2020-04-20,2020-04-27,35,,,8,.37607,,,,,
bK20H03N,54016668,       (2020 HN3),2020 HN3,,,Y,N,29.584,,,,,,,,,,,,,,,,,.23954,,JPL 1,2459000.5,59000,20200531.0000000,J2000,.1152827033874352,1.019150733215222,.9016602815308842,2.920971474405916,29.77840825634408,277.6470994868453,315.3141740527001,1.136641184899559,.9579579413154848,2459047.146960184845,20200716.6469602,375.7993795694638,1.02888262715801,.0014573,0.567137441,3.96451,5.984,.00013425,5.096E-5,9.1857E-5,.0042559,.0033868,.012593,.021939,5.6835E-5,7.185E-5,.019404,.028186,APO,Otto Matic,3,2020-04-19,2020-04-22,12,,,6,.59607,,,,,
bK20H03O,54016669,       (2020 HO3),2020 HO3,,,Y,N,26.143,,,,,,,,,,,,,,,,,.55664,,JPL 2,2458959.5,58959,20200420.0000000,J2000,.2952320797892704,1.256660008968036,.8856536609323994,10.02342690222624,27.55937316520378,259.0273074462616,314.0380106626483,1.627666357003672,.6996444315626684,2459025.193354029410,20200624.6933540,514.5470810021792,1.40875313073834,.0425557,16.561401769,3.55265,5.065,.0022405,.0031486,.00059656,.066599,.0015813,.032112,.24092,.0040781,.0026294,.097453,1.9338,APO,Otto Matic,5,2020-04-19,2020-04-24,20,,,8,.42847,,,,,
bK20H03P,54016670,       (2020 HP3),2020 HP3,,,Y,N,22.479,,,,,,,,,,,,,,,,,.49921,,JPL 6,2459000.5,59000,20200531.0000000,J2000,.4047199179322679,1.906425442362823,1.134857093785754,3.107363946301314,185.0581802550368,85.05824927692697,346.0403686307536,2.677993790939893,.3744331883144144,2459037.782035366812,20200707.2820354,961.4532344758533,2.63231549480042,.132117,51.41597289,2.44881,3.835,4.7242E-5,.00014954,1.2018E-5,.00027811,.0014409,.00083837,.0022364,.00021007,4.4057E-5,.0023616,.11313,AMO,Otto Matic,52,2020-04-19,2020-06-10,32,,,6,.54128,,,,,
bK20H03Q,54016671,       (2020 HQ3),2020 HQ3,,,Y,N,25.392,,,,,,,,,,,,,,,,,.34188,,JPL 13,2459000.5,59000,20200531.0000000,J2000,.3234335729919896,.9885379631502884,.6688115976903669,3.642032813580734,212.7733096457075,123.2485002044983,310.41768766366,1.30826432861021,1.002799353758349,2459049.943901365226,20200719.4439014,358.9950458691175,0.982874868909288,.0120427,4.686657559,4.05325,6.087,.00035433,9.5078E-5,.00028595,.004716,.00034179,.00070355,.038292,.00012583,.00014468,.031052,.051793,ATE,Otto Matic,15,2020-04-19,2020-05-04,75,,,6,.52085,,,,,
bK20H03R,54016672,       (2020 HR3),2020 HR3,,,Y,N,23.956,,,,,,,,,,,,,,,,,.43583,,JPL 4,2459000.5,59000,20200531.0000000,J2000,.3411502982650392,1.090234013258447,.7183003544566374,8.282889605968697,47.38528403984762,279.2838505623777,314.7213739012528,1.462167672060257,.8658137593962268,2459052.796034346142,20200722.2960343,415.793807955934,1.13838140439681,.00367747,1.4311609999,3.88412,5.624,.00051527,.00029227,.00036938,.013251,.0093549,.010383,.044242,.00039198,.00034816,.03007,.1672,APO,Otto Matic,22,2020-04-21,2020-05-13,40,,,7,.47095,,,,,
bK20H03S,54016673,       (2020 HS3),2020 HS3,,,Y,N,27.842,,,,,,,,,,,,,,,,,.51183,,JPL 1,2458961.5,58961,20200422.0000000,J2000,.5226472887254011,1.961993279795591,.9365628116129681,4.104112543021597,204.8220235656295,327.3012214897463,11.4065336049153,2.987423747978214,.3586392359575573,2458929.694964573633,20200321.1949646,1003.79424197358,2.74823885550604,.00449809,1.7505216853,1.99382,3.696,.0010861,.0042568,9.9655E-5,.0076239,.0043393,.0072488,.041391,.0064816,.0011672,.011988,3.2668,APO,Otto Matic,1,2020-04-21,2020-04-22,25,,,8,.62365,,,,,
bK20H03T,54016674,       (2020 HT3),2020 HT3,,,Y,N,25.25,,,,,,,,,,,,,,,,,.36244,,JPL 18,2459000.5,59000,20200531.0000000,J2000,.139767456776558,1.034534487171444,.8899402329518505,5.470360928081584,202.8814133407417,280.0816668549673,109.5687217925346,1.179128741391037,.9366700084137288,2458883.523134286010,20200204.0231343,384.3402657993373,1.05226629924528,.00796082,3.0981123194,3.85017,5.909,3.6449E-5,1.7568E-5,2.2599E-5,.0015227,.00010405,.0017281,.0066933,2.0024E-5,2.3859E-5,.0041662,.0097901,APO,Otto Matic,33,2020-04-21,2020-05-24,219,,,5,.35091,,,,,
bK20H03U,54016675,       (2020 HU3),2020 HU3,,,Y,N,25.937,,,,,,,,,,,,,,,,,.45049,,JPL 5,2459000.5,59000,20200531.0000000,J2000,.297761490186932,1.428069843320508,1.002845638682375,24.11951584079874,211.0384205632124,342.6851458977425,32.1426478390966,1.853294047958641,.5775371183197371,2458944.845312501106,20200405.3453125,623.3365589511707,1.70660248857268,.00817491,3.1814297247,3.12317,4.557,.00024901,.00051312,4.7612E-6,.010122,2.1117E-5,.0061993,.021355,.00066591,.00031127,.0069855,.33596,APO,Otto Matic,6,2020-04-21,2020-04-27,106,,,7,.43085,,,,,
